{"type": "FeatureCollection", "features": [ {"type": "Feature", "properties": {"norad_id": 43010, "name": "FENGYUN 3D", "group": "weather", "lat": -13.074421634907473, "lon": 134.199128074532, "alt_km": 830.1667114181191, "timestamp": "2025-12-15T22:44:28.563454+00:00", "meta": {"OBJECT_NAME": "FENGYUN 3D", "OBJECT_ID": "2017-072A", "EPOCH": "2025-12-15T08:18:09.978048", "MEAN_MOTION": 14.19684632, "ECCENTRICITY": 0.00010447, "INCLINATION": 98.989, "RA_OF_ASC_NODE": 315.6953, "ARG_OF_PERICENTER": 172.0819, "MEAN_ANOMALY": 188.0373, "EPHEMERIS_TYPE": 0, "CLASSIFICATION_TYPE": "U", "NORAD_CAT_ID": 43010, "ELEMENT_SET_NO": 999, "REV_AT_EPOCH": 41890, "BSTAR": 5.3302195e-05, "MEAN_MOTION_DOT": 6.7e-07, "MEAN_MOTION_DDOT": 0}, "tle": {"line1": "1 43010U 17072A   25349.34594882  .00000067  00000+0  53302-4 0  9990", "line2": "2 43010  98.9890 315.6953 0001044 172.0819 188.0373 14.19684632418908"}}, "geometry": {"type": "Point", "coordinates": [134.199128074532, -13.074421634907473]}}, {"type": "Feature", "properties": {"norad_id": 43013, "name": "NOAA 20 (JPSS-1)", "group": "weather", "lat": -16.374392638209407, "lon": -71.19410025265266, "alt_km": 831.9536163802904, "timestamp": "2025-12-15T22:44:28.563466+00:00", "meta": {"OBJECT_NAME": "NOAA 20 (JPSS-1)", "OBJECT_ID": "2017-073A", "EPOCH": "2025-12-15T07:35:39.306624", "MEAN_MOTION": 14.19526433, "ECCENTRICITY": 0.00021542, "INCLINATION": 98.7601, "RA_OF_ASC_NODE": 285.585, "ARG_OF_PERICENTER": 83.5254, "MEAN_ANOMALY": 276.6168, "EPHEMERIS_TYPE": 0, "CLASSIFICATION_TYPE": "U", "NORAD_CAT_ID": 43013, "ELEMENT_SET_NO": 999, "REV_AT_EPOCH": 41838, "BSTAR": 5.9927802e-05, "MEAN_MOTION_DOT": 8.2e-07, "MEAN_MOTION_DDOT": 0}, "tle": {"line1": "1 43013U 17073A   25349.31642716  .00000082  00000+0  59928-4 0  9998", "line2": "2 43013  98.7601 285.5850 0002154  83.5254 276.6168 14.19526433418384"}}, "geometry": {"type": "Point", "coordinates": [-71.19410025265266, -16.374392638209407]}}, {"type": "Feature", "properties": {"norad_id": 43226, "name": "GOES 17", "group": "weather", "lat": -0.43165754546883367, "lon": -23.511573642493747, "alt_km": 35779.10750317449, "timestamp": "2025-12-15T22:44:28.563479+00:00", "meta": {"OBJECT_NAME": "GOES 17", "OBJECT_ID": "2018-022A", "EPOCH": "2025-12-15T08:19:38.704800", "MEAN_MOTION": 1.00271555, "ECCENTRICITY": 0.00031547, "INCLINATION": 0.4662, "RA_OF_ASC_NODE": 89.0982, "ARG_OF_PERICENTER": 189.8367, "MEAN_ANOMALY": 200.7349, "EPHEMERIS_TYPE": 0, "CLASSIFICATION_TYPE": "U", "NORAD_CAT_ID": 43226, "ELEMENT_SET_NO": 999, "REV_AT_EPOCH": 2858, "BSTAR": 0, "MEAN_MOTION_DOT": -1.62e-06, "MEAN_MOTION_DDOT": 0}, "tle": {"line1": "1 43226U 18022A   25349.34697575 -.00000162  00000+0  00000+0 0  9997", "line2": "2 43226   0.4662  89.0982 0003154 189.8367 200.7349  1.00271555 28582"}}, "geometry": {"type": "Point", "coordinates": [-23.511573642493747, -0.43165754546883367]}}, {"type": "Feature", "properties": {"norad_id": 43491, "name": "FENGYUN 2H", "group": "weather", "lat": 2.3064972730995086, "lon": 145.2598402353742, "alt_km": 35788.53197448019, "timestamp": "2025-12-15T22:44:28.563493+00:00", "meta": {"OBJECT_NAME": "FENGYUN 2H", "OBJECT_ID": "2018-050A", "EPOCH": "2025-12-15T01:46:49.826784", "MEAN_MOTION": 1.00271322, "ECCENTRICITY": 0.00026231, "INCLINATION": 2.557, "RA_OF_ASC_NODE": 81.3055, "ARG_OF_PERICENTER": 167.4021, "MEAN_ANOMALY": 301.3409, "EPHEMERIS_TYPE": 0, "CLASSIFICATION_TYPE": "U", "NORAD_CAT_ID": 43491, "ELEMENT_SET_NO": 999, "REV_AT_EPOCH": 2759, "BSTAR": 0, "MEAN_MOTION_DOT": -1.11e-06, "MEAN_MOTION_DDOT": 0}, "tle": {"line1": "1 43491U 18050A   25349.07418781 -.00000111  00000+0  00000+0 0  9996", "line2": "2 43491   2.5570  81.3055 0002623 167.4021 301.3409  1.00271322 27599"}}, "geometry": {"type": "Point", "coordinates": [145.2598402353742, 2.3064972730995086]}}, {"type": "Feature", "properties": {"norad_id": 43689, "name": "METOP-C", "group": "weather", "lat": 32.32208482306445, "lon": -126.77694828090877, "alt_km": 818.7128680252599, "timestamp": "2025-12-15T22:44:28.563505+00:00", "meta": {"OBJECT_NAME": "METOP-C", "OBJECT_ID": "2018-087A", "EPOCH": "2025-12-15T08:32:12.177600", "MEAN_MOTION": 14.21485378, "ECCENTRICITY": 0.00011284, "INCLINATION": 98.6929, "RA_OF_ASC_NODE": 47.0854, "ARG_OF_PERICENTER": 34.449, "MEAN_ANOMALY": 325.676, "EPHEMERIS_TYPE": 0, "CLASSIFICATION_TYPE": "U", "NORAD_CAT_ID": 43689, "ELEMENT_SET_NO": 999, "REV_AT_EPOCH": 36871, "BSTAR": 8.1364504e-05, "MEAN_MOTION_DOT": 1.34e-06, "MEAN_MOTION_DDOT": 0}, "tle": {"line1": "1 43689U 18087A   25349.35569650  .00000134  00000+0  81365-4 0  9990", "line2": "2 43689  98.6929  47.0854 0001128  34.4490 325.6760 14.21485378368716"}}, "geometry": {"type": "Point", "coordinates": [-126.77694828090877, 32.32208482306445]}}, {"type": "Feature", "properties": {"norad_id": 43823, "name": "GEO-KOMPSAT-2A", "group": "weather", "lat": 0.02429912349959299, "lon": -165.76156124903684, "alt_km": 35785.627391587215, "timestamp": "2025-12-15T22:44:28.563527+00:00", "meta": {"OBJECT_NAME": "GEO-KOMPSAT-2A", "OBJECT_ID": "2018-100A", "EPOCH": "2025-12-14T19:09:50.685120", "MEAN_MOTION": 1.00272904, "ECCENTRICITY": 4.857e-05, "INCLINATION": 0.0478, "RA_OF_ASC_NODE": 139.8747, "ARG_OF_PERICENTER": 333.1425, "MEAN_ANOMALY": 26.433, "EPHEMERIS_TYPE": 0, "CLASSIFICATION_TYPE": "U", "NORAD_CAT_ID": 43823, "ELEMENT_SET_NO": 999, "REV_AT_EPOCH": 2578, "BSTAR": 0, "MEAN_MOTION_DOT": -3.24e-06, "MEAN_MOTION_DDOT": 0}, "tle": {"line1": "1 43823U 18100A   25348.79850330 -.00000324  00000+0  00000+0 0  9995", "line2": "2 43823   0.0478 139.8747 0000485 333.1425  26.4330  1.00272904 25783"}}, "geometry": {"type": "Point", "coordinates": [-165.76156124903684, 0.02429912349959299]}}, {"type": "Feature", "properties": {"norad_id": 44387, "name": "METEOR-M2 2", "group": "weather", "lat": -71.49772936160065, "lon": 121.80420002517045, "alt_km": 818.5308081317316, "timestamp": "2025-12-15T22:44:28.563544+00:00", "meta": {"OBJECT_NAME": "METEOR-M2 2", "OBJECT_ID": "2019-038A", "EPOCH": "2025-12-15T08:03:57.355200", "MEAN_MOTION": 14.2429406, "ECCENTRICITY": 0.00013951, "INCLINATION": 98.8973, "RA_OF_ASC_NODE": 329.0969, "ARG_OF_PERICENTER": 141.6919, "MEAN_ANOMALY": 218.4358, "EPHEMERIS_TYPE": 0, "CLASSIFICATION_TYPE": "U", "NORAD_CAT_ID": 44387, "ELEMENT_SET_NO": 999, "REV_AT_EPOCH": 33512, "BSTAR": 0.00019780817, "MEAN_MOTION_DOT": 4.11e-06, "MEAN_MOTION_DDOT": 0}, "tle": {"line1": "1 44387U 19038A   25349.33608050  .00000411  00000+0  19781-3 0  9999", "line2": "2 44387  98.8973 329.0969 0001395 141.6919 218.4358 14.24294060335126"}}, "geometry": {"type": "Point", "coordinates": [121.80420002517045, -71.49772936160065]}}, {"type": "Feature", "properties": {"norad_id": 47719, "name": "ARKTIKA-M 1", "group": "weather", "lat": 49.48691900812389, "lon": -132.66433920948768, "alt_km": 26202.85156326803, "timestamp": "2025-12-15T22:44:28.563559+00:00", "meta": {"OBJECT_NAME": "ARKTIKA-M 1", "OBJECT_ID": "2021-016A", "EPOCH": "2025-12-09T14:03:23.859648", "MEAN_MOTION": 2.00631311, "ECCENTRICITY": 0.7202538, "INCLINATION": 63.1769, "RA_OF_ASC_NODE": 84.4506, "ARG_OF_PERICENTER": 269.1116, "MEAN_ANOMALY": 15.6235, "EPHEMERIS_TYPE": 0, "CLASSIFICATION_TYPE": "U", "NORAD_CAT_ID": 47719, "ELEMENT_SET_NO": 999, "REV_AT_EPOCH": 3498, "BSTAR": 0, "MEAN_MOTION_DOT": -6.1e-07, "MEAN_MOTION_DDOT": 0}, "tle": {"line1": "1 47719U 21016A   25343.58569282 -.00000061  00000+0  00000+0 0  9996", "line2": "2 47719  63.1769  84.4506 7202538 269.1116  15.6235  2.00631311 34985"}}, "geometry": {"type": "Point", "coordinates": [-132.66433920948768, 49.48691900812389]}}, {"type": "Feature", "properties": {"norad_id": 49008, "name": "FENGYUN 3E", "group": "weather", "lat": 17.66786879531551, "lon": 173.24211342149516, "alt_km": 826.0495710594505, "timestamp": "2025-12-15T22:44:28.563574+00:00", "meta": {"OBJECT_NAME": "FENGYUN 3E", "OBJECT_ID": "2021-062A", "EPOCH": "2025-12-15T06:45:34.390656", "MEAN_MOTION": 14.19880537, "ECCENTRICITY": 5.897e-05, "INCLINATION": 98.748, "RA_OF_ASC_NODE": 349.7729, "ARG_OF_PERICENTER": 244.7401, "MEAN_ANOMALY": 115.3714, "EPHEMERIS_TYPE": 0, "CLASSIFICATION_TYPE": "U", "NORAD_CAT_ID": 49008, "ELEMENT_SET_NO": 999, "REV_AT_EPOCH": 23048, "BSTAR": 0.00010546092, "MEAN_MOTION_DOT": 1.8e-06, "MEAN_MOTION_DDOT": 0}, "tle": {"line1": "1 49008U 21062A   25349.28164804  .00000180  00000+0  10546-3 0  9995", "line2": "2 49008  98.7480 349.7729 0000589 244.7401 115.3714 14.19880537230489"}}, "geometry": {"type": "Point", "coordinates": [173.24211342149516, 17.66786879531551]}}, {"type": "Feature", "properties": {"norad_id": 51850, "name": "GOES 18", "group": "weather", "lat": -0.008067376355064982, "lon": -71.04986059162073, "alt_km": 35784.39554964675, "timestamp": "2025-12-15T22:44:28.563587+00:00", "meta": {"OBJECT_NAME": "GOES 18", "OBJECT_ID": "2022-021A", "EPOCH": "2025-12-15T08:39:38.537280", "MEAN_MOTION": 1.0027144, "ECCENTRICITY": 4.859e-05, "INCLINATION": 0.0044, "RA_OF_ASC_NODE": 58.3682, "ARG_OF_PERICENTER": 262.9384, "MEAN_ANOMALY": 115.8716, "EPHEMERIS_TYPE": 0, "CLASSIFICATION_TYPE": "U", "NORAD_CAT_ID": 51850, "ELEMENT_SET_NO": 999, "REV_AT_EPOCH": 474, "BSTAR": 0, "MEAN_MOTION_DOT": 1.18e-06, "MEAN_MOTION_DDOT": 0}, "tle": {"line1": "1 51850U 22021A   25349.36086270  .00000118  00000+0  00000+0 0  9999", "line2": "2 51850   0.0044  58.3682 0000485 262.9384 115.8716  1.00271440  4745"}}, "geometry": {"type": "Point", "coordinates": [-71.04986059162073, -0.008067376355064982]}}]}